STARLINK-3980           
1 52611C 22052P   26118.57618056 -.00004389  00000+0 -27525-3 0  1184
2 52611  53.2154  60.1687 0001641  92.4652   6.2351 15.08832643    13
STARLINK-4002           
1 52612C 22052Q   26118.52826389 -.00019831  00000+0 -12409-2 0  1182
2 52612  53.2169  55.3852 0001612  77.1364 328.6379 15.08925332    17
STARLINK-3982           
1 52614C 22052S   26118.57479167  .00076934  00000+0  12976-2 0  1181
2 52614  53.2103 351.7164 0004887 110.6755 207.4063 15.51005480    15
STARLINK-4011           
1 52615C 22052T   26118.56368056 -.00011731  00000+0 -73444-3 0  1189
2 52615  53.2154  60.2267 0001127  78.5135 332.2282 15.08904175    17
STARLINK-3996           
1 52617C 22052V   26118.57756944  .00021339  00000+0  13397-2 0  1182
2 52617  53.2174  45.1642 0001322  86.9971  21.8470 15.08784907    17
STARLINK-3983           
1 52618C 22052W   26118.52826389 -.00007924  00000+0 -49702-3 0  1185
2 52618  53.2174  45.3847 0001379  92.6191  88.1588 15.08831250    17
STARLINK-3741           
1 52619C 22052X   26118.56506944  .00013606  00000+0  85346-3 0  1188
2 52619  53.2176  45.2101 0001518  91.3339 329.4804 15.08821657    19
STARLINK-3975           
1 52620C 22052Y   26118.57340278 -.00006681  00000+0 -41902-3 0  1184
2 52620  53.2153  60.1818 0001367  93.6871  29.9126 15.08833361    19
STARLINK-3984           
1 52621C 22052Z   26118.57756944  .00021423  00000+0  13437-2 0  1186
2 52621  53.2173  45.1630 0002076  88.7929  79.9617 15.08818793    16
STARLINK-4008           
1 52622C 22052AA  26118.55951389 -.00016174  00000+0 -10144-2 0  1186
2 52622  53.2167  60.2443 0001976  86.4131 161.7074 15.08839353    10
STARLINK-3986           
1 52623C 22052AB  26118.54006944  .00000842  00000+0  52886-4 0  1188
2 52623  53.2171  45.3313 0001270  82.8567 262.1380 15.08771834    11
STARLINK-3988           
1 52625C 22052AD  26118.54979167  .00004833  00000+0  30314-3 0  1181
2 52625  53.2171  45.2875 0001550  93.2347 324.5496 15.08829255    10
STARLINK-3990           
1 52626C 22052AE  26118.53034722 -.00007882  00000+0 -49459-3 0  1189
2 52626  53.2174  45.3756 0001205  97.8023 154.3554 15.08819367    18
STARLINK-3992           
1 52627C 22052AF  26118.58243056  .00025021  00000+0  15688-2 0  1186
2 52627  53.2163  45.1406 0001541  85.9487 209.1994 15.08829924    19
STARLINK-4001           
1 52628C 22052AG  26118.52201389 -.00027016  00000+0 -16944-2 0  1188
2 52628  53.2166  60.4125 0001451  87.0376 337.2774 15.08844291    14
STARLINK-4022           
1 52629C 22052AH  26118.52270833 -.00010529  00000+0 -66038-3 0  1180
2 52629  53.2159  45.3707 0001530  90.3967 280.2163 15.08836021    17
STARLINK-3989           
1 52630C 22052AJ  26118.48590278 -.00023939  00000+0 -15014-2 0  1181
2 52630  53.2168  45.5758 0001602  91.0635 359.4920 15.08844822    15
STARLINK-3794           
1 52631C 22052AK  26118.59006944 -.00135720  00000+0 -85103-2 0  1184
2 52631  53.2158  45.1158 0001346  92.8697 278.6987 15.08907299    10
STARLINK-3995           
1 52632C 22052AL  26118.55118056  .00006028  00000+0  37804-3 0  1181
2 52632  53.2168  45.2806 0001695  86.8852  18.4199 15.08832025    15
STARLINK-3994           
1 52633C 22052AM  26118.57756944  .00021109  00000+0  13238-2 0  1189
2 52633  53.2160  45.1638 0001354  92.5778 276.1542 15.08823909    19
STARLINK-3974           
1 52634C 22052AN  26118.53243056 -.00005673  00000+0 -35609-3 0  1188
2 52634  53.2160  45.3934 0001501  91.2866 312.2156 15.08802914    15
STARLINK-3978           
1 52635C 22052AP  26118.49145833 -.00012213  00000+0 -76605-3 0  1187
2 52635  53.2161  35.5501 0001340  86.4808 269.2658 15.08835672    16
STARLINK-3967           
1 52636C 22052AQ  26118.56368056  .00012731  00000+0  79846-3 0  1183
2 52636  53.2161  45.2273 0001402  92.7424 160.5050 15.08826308    19
STARLINK-3961           
1 52637C 22052AR  26118.54979167  .00021962  00000+0  13775-2 0  1187
2 52637  53.2162  35.2884 0001461  92.2649 240.5194 15.08819224    14
STARLINK-3941           
1 52638C 22052AS  26118.55118056  .00004945  00000+0  31014-3 0  1180
2 52638  53.2158  45.2821 0001539  88.6368 116.6918 15.08830191    18
STARLINK-3968           
1 52639C 22052AT  26118.51854167  .00002676  00000+0  16786-3 0  1185
2 52639  53.2169  35.4294 0001379  92.8267 130.1159 15.08828854    14
STARLINK-3977           
1 52640C 22052AU  26118.58798611  .00039037  00000+0  24469-2 0  1182
2 52640  53.2161  35.1449 0001459  97.6296  42.6046 15.08833524    13
STARLINK-3991           
1 52641C 22052AV  26118.56506944  .00030426  00000+0  19080-2 0  1183
2 52641  53.2162  35.4221 0001326  90.9500 299.5202 15.08822258    12
STARLINK-3971           
1 52642C 22052AW  26118.58937500  .00039098  00000+0  24518-2 0  1188
2 52642  53.2163  35.1109 0001339  92.3088 115.5895 15.08818902    13
STARLINK-3963           
1 52643C 22052AX  26118.50395833 -.00006504  00000+0 -40835-3 0  1187
2 52643  53.2179  35.4650 0001480  87.0957 151.4026 15.08799272    11
STARLINK-3985           
1 52644C 22052AY  26118.56576389  .00029811  00000+0  18691-2 0  1189
2 52644  53.2165  35.2174 0001315 105.1721 354.3559 15.08828478    10
STARLINK-3973           
1 52645C 22052AZ  26118.55534722  .00023921  00000+0  15002-2 0  1183
2 52645  53.2175  35.3701 0001236  94.2136   8.6765 15.08822902    13
STARLINK-3832           
1 52646C 22052BA  26118.55673611  .00024662  00000+0  15467-2 0  1183
2 52646  53.2173  35.2974 0001541  94.0352 356.4444 15.08822469    16
STARLINK-3854           
1 52648C 22052BC  26118.52548611  .00006175  00000+0  38730-3 0  1181
2 52648  53.2179  35.3966 0001412  95.3048 225.3811 15.08825737    12
STARLINK-3868           
1 52649C 22052BD  26118.51784722  .00003320  00000+0  20826-3 0  1182
2 52649  53.2169  35.2837 0001426  89.0088 330.2598 15.08825662    12
STARLINK-3891           
1 52650C 22052BE  26118.52826389  .00026029  00000+0  16320-2 0  1185
2 52650  53.2172  25.4932 0001526  89.6032 201.0909 15.08829127    12
STARLINK-4004           
1 52656C 22053A   26118.58659722 -.00028366  00000+0 -17789-2 0  1181
2 52656  53.2157 290.1323 0001019  90.9942 354.1049 15.08850763    13
STARLINK-4084           
1 52657C 22053B   26118.55326389 -.00012681  00000+0 -79506-3 0  1188
2 52657  53.2150 290.5925 0001340  91.1862 332.5466 15.08851323    16
STARLINK-4082           
1 52658C 22053C   26118.57062500 -.00020227  00000+0 -12682-2 0  1189
2 52658  53.2158 290.1965 0001233  96.7248 246.7650 15.08854460    11
STARLINK-3960           
1 52659C 22053D   26118.57965278 -.00035424  00000+0 -22209-2 0  1185
2 52659  53.2158 290.1043 0001293  90.4378 322.1512 15.08864051    13
STARLINK-4081           
1 52660C 22053E   26118.51784722  .00003314  00000+0  20792-3 0  1181
2 52660  53.2159 290.4315 0001464  86.6295  10.1016 15.08819728    10
STARLINK-4044           
1 52662C 22053G   26118.53659722 -.00005270  00000+0 -33041-3 0  1182
2 52662  53.2158 290.3498 0001401  94.4595 164.0996 15.08845579    12
STARLINK-4037           
1 52663C 22053H   26118.51923611  .00001107  00000+0  69377-4 0  1187
2 52663  53.2157 290.4304 0001751  94.6981  89.5025 15.08846073    12
STARLINK-4070           
1 52664C 22053J   26118.53868056 -.00006263  00000+0 -39267-3 0  1185
2 52664  53.2158 290.3394 0001371  91.7080 158.1769 15.08844619    10
STARLINK-4064           
1 52665C 22053K   26118.58034722 -.00018525  00000+0 -11601-2 0  1181
2 52665  53.2149 290.1526 0001498  98.1761 118.2081 15.08895603    16
STARLINK-4079           
1 52666C 22053L   26118.54562500 -.00011643  00000+0 -73013-3 0  1188
2 52666  53.2158 289.9223 0001409  94.7327  93.1526 15.08844243    18
STARLINK-4076           
1 52667C 22053M   26118.58520833 -.00022345  00000+0 -14008-2 0  1185
2 52667  53.2148 290.1304 0001424  89.0512 173.6822 15.08859066    14
STARLINK-4067           
1 52668C 22053N   26118.55951389 -.00020311  00000+0 -12734-2 0  1182
2 52668  53.2152 290.2473 0001531  93.4454 349.6541 15.08856433    19
STARLINK-3972           
1 52669C 22053P   26118.56854167 -.00017637  00000+0 -11053-2 0  1180
2 52669  53.2150 290.2059 0001342  96.8633 135.2673 15.08869329    17
STARLINK-4075           
1 52670C 22053Q   26118.57270833 -.00019047  00000+0 -11943-2 0  1180
2 52670  53.2155 290.2558 0001242  88.7154  46.0563 15.08849217    16
STARLINK-4071           
1 52671C 22053R   26118.59006944 -.00034524  00000+0 -21645-2 0  1180
2 52671  53.2152 290.1088 0001283  94.1832 274.9928 15.08863405    12
STARLINK-4073           
1 52672C 22053S   26118.55951389 -.00017664  00000+0 -11074-2 0  1180
2 52672  53.2149 290.2464 0001300  92.7474  50.3622 15.08857484    11
STARLINK-3976           
1 52673C 22053T   26118.56645833 -.00018372  00000+0 -11514-2 0  1182
2 52673  53.2156 290.2142 0001260  97.0223 183.7557 15.08868251    10
STARLINK-3936           
1 52674C 22053U   26118.55395833  .00130210  00000+0  54543-2 0  1187
2 52674  53.2168 288.5677 0001226 108.4016 189.1719 15.22947286    18
STARLINK-3934           
1 52675C 22053V   26118.58243056 -.00031067  00000+0 -19478-2 0  1180
2 52675  53.2150 280.1443 0001395  90.2819 292.3634 15.08859435    10
STARLINK-4006           
1 52676C 22053W   26118.51368056  .00002051  00000+0  12853-3 0  1182
2 52676  53.2157 290.4515 0001412  84.4113 249.5864 15.08859235    11
STARLINK-4074           
1 52678C 22053Y   26118.54701389 -.00018577  00000+0 -11637-2 0  1187
2 52678  53.2154 280.4078 0001206  78.8318  51.2316 15.08885979    12
STARLINK-4031           
1 52679C 22053Z   26118.57340278 -.00031258  00000+0 -19595-2 0  1189
2 52679  53.2151 280.1850 0001332 102.5943 330.9453 15.08865855    14
STARLINK-3774           
1 52680C 22053AA  26118.58243056 -.00033821  00000+0 -21206-2 0  1188
2 52680  53.2153 279.9097 0001510  94.1327  68.6738 15.08858752    16
